start=new Date('2021-12-15T00:00:00.000Z').valueOf();
sats=[{"GP_ID":"191696643","CENTER_NAME":"EARTH","DECAY_DATE":null,"FILE":"3240057","MEAN_ANOMALY":"125.3287","ECCENTRICITY":"0.00034780","REV_AT_EPOCH":"364","NORAD_CAT_ID":"49150","TLE_LINE1":"1 49150U 21082W   21348.58334491 -.00654397  00000-0 -33615-1 0  9992","OBJECT_ID":"2021-082W","RA_OF_ASC_NODE":"233.4352","MEAN_MOTION":"15.19009119","EPOCH":"2021-12-14T14:00:01.000224","COUNTRY_CODE":"US","TIME_SYSTEM":"UTC","INCLINATION":"70.0000","PERIOD":"94.799","LAUNCH_DATE":"2021-09-14","RCS_SIZE":"LARGE","BSTAR":"-0.03361500000000","MEAN_MOTION_DOT":"-0.00654397","PERIAPSIS":"506.441","ARG_OF_PERICENTER":"282.2853","OBJECT_NAME":"STARLINK-3104","OBJECT_TYPE":"PAYLOAD","SEMIMAJOR_AXIS":"6886.971","EPHEMERIS_TYPE":"0","CLASSIFICATION_TYPE":"U","APOAPSIS":"511.231","MEAN_ELEMENT_THEORY":"SGP4","REF_FRAME":"TEME","ELEMENT_SET_NO":"999","SITE":"AFWTR","TLE_LINE2":"2 49150  70.0000 233.4352 0003478 282.2853 125.3287 15.19009119  3649","MEAN_MOTION_DDOT":"0.0000000000000"},{"MEAN_ELEMENT_THEORY":"SGP4","REF_FRAME":"TEME","APOAPSIS":"361.805","MEAN_MOTION_DDOT":"0.0000000000000","ELEMENT_SET_NO":"999","TLE_LINE2":"2 49151  70.0003 229.0711 0003255 279.2393 160.1796 15.69750685 15709","SITE":"AFWTR","OBJECT_TYPE":"PAYLOAD","SEMIMAJOR_AXIS":"6737.747","CLASSIFICATION_TYPE":"U","EPHEMERIS_TYPE":"0","RCS_SIZE":"LARGE","BSTAR":"-0.00005782300000","ARG_OF_PERICENTER":"279.2393","OBJECT_NAME":"STARLINK-3102","MEAN_MOTION_DOT":"-0.00007109","PERIAPSIS":"357.419","LAUNCH_DATE":"2021-09-14","COUNTRY_CODE":"US","EPOCH":"2021-12-14T20:00:01.000224","TIME_SYSTEM":"UTC","INCLINATION":"70.0003","PERIOD":"91.734","TLE_LINE1":"1 49151U 21082X   21348.83334491 -.00007109  00000-0 -57823-4 0  9994","MEAN_MOTION":"15.69750685","RA_OF_ASC_NODE":"229.0711","OBJECT_ID":"2021-082X","REV_AT_EPOCH":"1570","NORAD_CAT_ID":"49151","ECCENTRICITY":"0.00032550","GP_ID":"191697637","CENTER_NAME":"EARTH","FILE":"3240080","MEAN_ANOMALY":"160.1796","DECAY_DATE":null},{"LAUNCH_DATE":"2021-09-14","BSTAR":"-0.00029648000000","RCS_SIZE":"LARGE","OBJECT_NAME":"STARLINK-3081","ARG_OF_PERICENTER":"272.8094","PERIAPSIS":"357.463","MEAN_MOTION_DOT":"-0.00035473","OBJECT_TYPE":"PAYLOAD","SEMIMAJOR_AXIS":"6737.714","CLASSIFICATION_TYPE":"U","EPHEMERIS_TYPE":"0","MEAN_ELEMENT_THEORY":"SGP4","REF_FRAME":"TEME","APOAPSIS":"361.694","MEAN_MOTION_DDOT":"0.0000000000000","SITE":"AFWTR","TLE_LINE2":"2 49152  69.9991 229.0598 0003140 272.8094 175.2943 15.69762481 15625","ELEMENT_SET_NO":"999","CENTER_NAME":"EARTH","GP_ID":"191698003","MEAN_ANOMALY":"175.2943","FILE":"3240095","DECAY_DATE":null,"NORAD_CAT_ID":"49152","REV_AT_EPOCH":"1562","ECCENTRICITY":"0.00031400","TLE_LINE1":"1 49152U 21082Y   21348.83334491 -.00035473  00000-0 -29648-3 0  9993","MEAN_MOTION":"15.69762481","OBJECT_ID":"2021-082Y","RA_OF_ASC_NODE":"229.0598","TIME_SYSTEM":"UTC","COUNTRY_CODE":"US","EPOCH":"2021-12-14T20:00:01.000224","INCLINATION":"69.9991","PERIOD":"91.734"},{"APOAPSIS":"362.250","MEAN_ELEMENT_THEORY":"SGP4","REF_FRAME":"TEME","ELEMENT_SET_NO":"999","SITE":"AFWTR","TLE_LINE2":"2 49153  69.9989 229.7703 0003593 267.4838 204.1175 15.69674939  3688","MEAN_MOTION_DDOT":"0.0000000000000","OBJECT_TYPE":"PAYLOAD","SEMIMAJOR_AXIS":"6737.964","CLASSIFICATION_TYPE":"U","EPHEMERIS_TYPE":"0","RCS_SIZE":"LARGE","BSTAR":"0.00064971000000","PERIAPSIS":"357.408","MEAN_MOTION_DOT":"0.00077834","ARG_OF_PERICENTER":"267.4838","OBJECT_NAME":"STARLINK-3072","LAUNCH_DATE":"2021-09-14","EPOCH":"2021-12-14T14:00:01.000224","COUNTRY_CODE":"US","TIME_SYSTEM":"UTC","PERIOD":"91.739","INCLINATION":"69.9989","TLE_LINE1":"1 49153U 21082Z   21348.58334491  .00077834  00000-0  64971-3 0  9999","MEAN_MOTION":"15.69674939","RA_OF_ASC_NODE":"229.7703","OBJECT_ID":"2021-082Z","ECCENTRICITY":"0.00035930","REV_AT_EPOCH":"368","NORAD_CAT_ID":"49153","CENTER_NAME":"EARTH","GP_ID":"191696063","DECAY_DATE":null,"FILE":"3240057","MEAN_ANOMALY":"204.1175"},{"BSTAR":"-0.00012439000000","RCS_SIZE":"LARGE","PERIAPSIS":"357.390","MEAN_MOTION_DOT":"-0.00015040","OBJECT_NAME":"STARLINK-3068","ARG_OF_PERICENTER":"270.3880","LAUNCH_DATE":"2021-09-14","APOAPSIS":"361.791","REF_FRAME":"TEME","MEAN_ELEMENT_THEORY":"SGP4","SITE":"AFWTR","TLE_LINE2":"2 49154  69.9992 229.7639 0003266 270.3880 207.5695 15.69758236  3685","ELEMENT_SET_NO":"999","MEAN_MOTION_DDOT":"0.0000000000000","OBJECT_TYPE":"PAYLOAD","SEMIMAJOR_AXIS":"6737.726","CLASSIFICATION_TYPE":"U","EPHEMERIS_TYPE":"0","ECCENTRICITY":"0.00032660","NORAD_CAT_ID":"49154","REV_AT_EPOCH":"368","GP_ID":"191696257","CENTER_NAME":"EARTH","DECAY_DATE":null,"MEAN_ANOMALY":"207.5695","FILE":"3240057","TIME_SYSTEM":"UTC","EPOCH":"2021-12-14T14:00:01.000224","COUNTRY_CODE":"US","PERIOD":"91.734","INCLINATION":"69.9992","TLE_LINE1":"1 49154U 21082AA  21348.58334491 -.00015040  00000-0 -12439-3 0  9995","OBJECT_ID":"2021-082AA","RA_OF_ASC_NODE":"229.7639","MEAN_MOTION":"15.69758236"},{"TLE_LINE1":"1 49155U 21082AB  21348.83334491 -.00035468  00000-0 -29612-3 0  9991","RA_OF_ASC_NODE":"229.0556","MEAN_MOTION":"15.69784693","OBJECT_ID":"2021-082AB","COUNTRY_CODE":"US","EPOCH":"2021-12-14T20:00:01.000224","TIME_SYSTEM":"UTC","PERIOD":"91.732","INCLINATION":"69.9982","CENTER_NAME":"EARTH","GP_ID":"191698646","FILE":"3240104","MEAN_ANOMALY":"167.2876","DECAY_DATE":null,"REV_AT_EPOCH":"1557","NORAD_CAT_ID":"49155","ECCENTRICITY":"0.00037650","OBJECT_TYPE":"PAYLOAD","SEMIMAJOR_AXIS":"6737.650","EPHEMERIS_TYPE":"0","CLASSIFICATION_TYPE":"U","MEAN_ELEMENT_THEORY":"SGP4","REF_FRAME":"TEME","APOAPSIS":"362.052","MEAN_MOTION_DDOT":"0.0000000000000","ELEMENT_SET_NO":"999","SITE":"AFWTR","TLE_LINE2":"2 49155  69.9982 229.0556 0003765 278.7112 167.2876 15.69784693 15570","LAUNCH_DATE":"2021-09-14","RCS_SIZE":"LARGE","BSTAR":"-0.00029612000000","ARG_OF_PERICENTER":"278.7112","OBJECT_NAME":"STARLINK-3060","MEAN_MOTION_DOT":"-0.00035468","PERIAPSIS":"356.978"},{"BSTAR":"0.00403650000000","RCS_SIZE":"LARGE","OBJECT_NAME":"STARLINK-3085","ARG_OF_PERICENTER":"274.0331","MEAN_MOTION_DOT":"0.00505301","PERIAPSIS":"358.457","LAUNCH_DATE":"2021-09-14","MEAN_ELEMENT_THEORY":"SGP4","REF_FRAME":"TEME","APOAPSIS":"362.574","MEAN_MOTION_DDOT":"0.0000000000000","SITE":"AFWTR","TLE_LINE2":"2 49156  69.9999 229.7522 0003055 274.0331 210.2186 15.69435103 15531","ELEMENT_SET_NO":"999","OBJECT_TYPE":"PAYLOAD","CLASSIFICATION_TYPE":"U","SEMIMAJOR_AXIS":"6738.651","EPHEMERIS_TYPE":"0","NORAD_CAT_ID":"49156","REV_AT_EPOCH":"1553","ECCENTRICITY":"0.00030550","GP_ID":"191668115","CENTER_NAME":"EARTH","MEAN_ANOMALY":"210.2186","FILE":"3239871","DECAY_DATE":null,"TIME_SYSTEM":"UTC","COUNTRY_CODE":"US","EPOCH":"2021-12-14T14:00:01.000224","PERIOD":"91.753","INCLINATION":"69.9999","TLE_LINE1":"1 49156U 21082AC  21348.58334491  .00505301  00000-0  40365-2 0  9997","OBJECT_ID":"2021-082AC","RA_OF_ASC_NODE":"229.7522","MEAN_MOTION":"15.69435103"},{"SEMIMAJOR_AXIS":"6739.210","CLASSIFICATION_TYPE":"U","EPHEMERIS_TYPE":"0","OBJECT_TYPE":"PAYLOAD","MEAN_MOTION_DDOT":"0.0000000000000","ELEMENT_SET_NO":"999","SITE":"AFWTR","TLE_LINE2":"2 49157  69.9994 229.7584 0003297 272.6045 207.5420 15.69239630 15558","MEAN_ELEMENT_THEORY":"SGP4","REF_FRAME":"TEME","APOAPSIS":"363.297","LAUNCH_DATE":"2021-09-14","ARG_OF_PERICENTER":"272.6045","OBJECT_NAME":"STARLINK-3051","MEAN_MOTION_DOT":"0.00760572","PERIAPSIS":"358.853","RCS_SIZE":"LARGE","BSTAR":"0.00593600000000","RA_OF_ASC_NODE":"229.7584","MEAN_MOTION":"15.69239630","OBJECT_ID":"2021-082AD","TLE_LINE1":"1 49157U 21082AD  21348.58334491  .00760572  00000-0  59360-2 0  9996","INCLINATION":"69.9994","PERIOD":"91.764","COUNTRY_CODE":"US","EPOCH":"2021-12-14T14:00:01.000224","TIME_SYSTEM":"UTC","FILE":"3239876","MEAN_ANOMALY":"207.5420","DECAY_DATE":null,"GP_ID":"191668196","CENTER_NAME":"EARTH","REV_AT_EPOCH":"1555","NORAD_CAT_ID":"49157","ECCENTRICITY":"0.00032970"},{"CENTER_NAME":"EARTH","GP_ID":"191698881","DECAY_DATE":null,"FILE":"3240119","MEAN_ANOMALY":"298.6885","ECCENTRICITY":"0.00034630","REV_AT_EPOCH":"1560","NORAD_CAT_ID":"49158","TLE_LINE1":"1 49158U 21082AE  21348.91667824  .00029157  00000-0  24469-3 0  9993","OBJECT_ID":"2021-082AE","RA_OF_ASC_NODE":"228.8119","MEAN_MOTION":"15.69796219","EPOCH":"2021-12-14T22:00:00.999936","COUNTRY_CODE":"US","TIME_SYSTEM":"UTC","PERIOD":"91.732","INCLINATION":"69.9993","LAUNCH_DATE":"2021-09-14","RCS_SIZE":"LARGE","BSTAR":"0.00024469000000","PERIAPSIS":"357.149","MEAN_MOTION_DOT":"0.00029157","ARG_OF_PERICENTER":"273.0440","OBJECT_NAME":"STARLINK-3083","OBJECT_TYPE":"PAYLOAD","SEMIMAJOR_AXIS":"6737.617","EPHEMERIS_TYPE":"0","CLASSIFICATION_TYPE":"U","APOAPSIS":"361.815","MEAN_ELEMENT_THEORY":"SGP4","REF_FRAME":"TEME","ELEMENT_SET_NO":"999","TLE_LINE2":"2 49158  69.9993 228.8119 0003463 273.0440 298.6885 15.69796219 15604","SITE":"AFWTR","MEAN_MOTION_DDOT":"0.0000000000000"},{"TLE_LINE1":"1 49159U 21082AF  21348.58334491 -.00654985  00000-0 -33638-1 0  9999","OBJECT_ID":"2021-082AF","RA_OF_ASC_NODE":"233.4397","MEAN_MOTION":"15.19019436","COUNTRY_CODE":"US","EPOCH":"2021-12-14T14:00:01.000224","TIME_SYSTEM":"UTC","PERIOD":"94.798","INCLINATION":"70.0000","GP_ID":"191668791","CENTER_NAME":"EARTH","FILE":"3239882","MEAN_ANOMALY":"143.0491","DECAY_DATE":null,"REV_AT_EPOCH":"1546","NORAD_CAT_ID":"49159","ECCENTRICITY":"0.00034050","OBJECT_TYPE":"PAYLOAD","EPHEMERIS_TYPE":"0","SEMIMAJOR_AXIS":"6886.940","CLASSIFICATION_TYPE":"U","REF_FRAME":"TEME","MEAN_ELEMENT_THEORY":"SGP4","APOAPSIS":"511.150","MEAN_MOTION_DDOT":"0.0000000000000","ELEMENT_SET_NO":"999","SITE":"AFWTR","TLE_LINE2":"2 49159  70.0000 233.4397 0003405 278.6159 143.0491 15.19019436 15465","LAUNCH_DATE":"2021-09-14","RCS_SIZE":"LARGE","BSTAR":"-0.03363800000000","ARG_OF_PERICENTER":"278.6159","OBJECT_NAME":"STARLINK-3056","PERIAPSIS":"506.460","MEAN_MOTION_DOT":"-0.00654985"}];
